[{"OBJECT_NAME":"ONEWEB-0518","OBJECT_ID":"2022-138Z","EPOCH":"2026-03-09T23:27:15.772896","MEAN_MOTION":13.19723536,"ECCENTRICITY":0.00017182,"INCLINATION":87.9227,"RA_OF_ASC_NODE":324.7448,"ARG_OF_PERICENTER":86.1675,"MEAN_ANOMALY":273.9654,"EPHEMERIS_TYPE":0,"CLASSIFICATION_TYPE":"U","NORAD_CAT_ID":54136,"ELEMENT_SET_NO":999,"REV_AT_EPOCH":16374,"BSTAR":-6.305209e-6,"MEAN_MOTION_DOT":1.0e-7,"MEAN_MOTION_DDOT":0},{"OBJECT_NAME":"SCOUT A DEB","OBJECT_ID":"1968-012D","EPOCH":"2026-03-09T14:11:26.158272","MEAN_MOTION":13.29255542,"ECCENTRICITY":0.0186242,"INCLINATION":89.8176,"RA_OF_ASC_NODE":105.3249,"ARG_OF_PERICENTER":174.8352,"MEAN_ANOMALY":314.7696,"EPHEMERIS_TYPE":0,"CLASSIFICATION_TYPE":"U","NORAD_CAT_ID":3214,"ELEMENT_SET_NO":999,"REV_AT_EPOCH":57130,"BSTAR":0.00024251,"MEAN_MOTION_DOT":1.33e-6,"MEAN_MOTION_DDOT":0}]
